{
  "type": "FeatureCollection",
  "features": [
    {
      "type": "Feature",
      "properties": {
        "norad_id": 42917,
        "name": "QZS-3 (QZSS/PRN 199)",
        "group": "gnss",
        "lat": -0.03941831870132972,
        "lon": 159.6183287609103,
        "alt_km": 35788.70900801287,
        "timestamp": "2025-12-12T20:43:07.278447+00:00",
        "meta_object_name": "QZS-3 (QZSS/PRN 199)",
        "meta_object_id": "2017-048A",
        "meta_epoch": "2025-12-12T05:31:26.876352",
        "meta_mean_motion": 1.00272319,
        "meta_eccentricity": 0.00020262,
        "meta_inclination": 0.0605,
        "meta_ra_of_asc_node": 196.6134,
        "meta_arg_of_pericenter": 71.2793,
        "meta_mean_anomaly": 23.2109,
        "meta_ephemeris_type": 0,
        "meta_classification_type": "U",
        "meta_norad_cat_id": 42917,
        "meta_element_set_no": 999,
        "meta_rev_at_epoch": 3038,
        "meta_bstar": 0,
        "meta_mean_motion_dot": -3.38e-06,
        "meta_mean_motion_ddot": 0,
        "tle_line1": "1 42917U 17048A   25346.23017218 -.00000338  00000+0  00000+0 0  9990",
        "tle_line2": "2 42917   0.0605 196.6134 0002026  71.2793  23.2109  1.00272319 30381"
      },
      "geometry": {
        "type": "Point",
        "coordinates": [
          159.6183287609103,
          -0.03941831870132972
        ]
      }
    },
    {
      "type": "Feature",
      "properties": {
        "norad_id": 42939,
        "name": "COSMOS 2522 (752)",
        "group": "gnss",
        "lat": 24.681360930603674,
        "lon": -148.8567004448117,
        "alt_km": 19142.96570795522,
        "timestamp": "2025-12-12T20:43:07.278460+00:00",
        "meta_object_name": "COSMOS 2522 (752)",
        "meta_object_id": "2017-055A",
        "meta_epoch": "2025-12-10T22:48:12.074400",
        "meta_mean_motion": 2.1310181,
        "meta_eccentricity": 0.00064932,
        "meta_inclination": 64.076,
        "meta_ra_of_asc_node": 198.29,
        "meta_arg_of_pericenter": 225.3551,
        "meta_mean_anomaly": 134.6611,
        "meta_ephemeris_type": 0,
        "meta_classification_type": "U",
        "meta_norad_cat_id": 42939,
        "meta_element_set_no": 999,
        "meta_rev_at_epoch": 6396,
        "meta_bstar": 0,
        "meta_mean_motion_dot": 5.1e-07,
        "meta_mean_motion_ddot": 0,
        "tle_line1": "1 42939U 17055A   25344.95013975  .00000051  00000+0  00000+0 0  9996",
        "tle_line2": "2 42939  64.0760 198.2900 0006493 225.3551 134.6611  2.13101810 63969"
      },
      "geometry": {
        "type": "Point",
        "coordinates": [
          -148.8567004448117,
          24.681360930603674
        ]
      }
    },
    {
      "type": "Feature",
      "properties": {
        "norad_id": 42965,
        "name": "QZS-4 (QZSS/PRN 195)",
        "group": "gnss",
        "lat": 3.5491875354457805,
        "lon": 161.6540415099091,
        "alt_km": 35943.16218583433,
        "timestamp": "2025-12-12T20:43:07.278472+00:00",
        "meta_object_name": "QZS-4 (QZSS/PRN 195)",
        "meta_object_id": "2017-062A",
        "meta_epoch": "2025-12-11T21:41:52.809216",
        "meta_mean_motion": 1.00253099,
        "meta_eccentricity": 0.0751972,
        "meta_inclination": 40.2262,
        "meta_ra_of_asc_node": 345.8805,
        "meta_arg_of_pericenter": 271.5381,
        "meta_mean_anomaly": 285.3819,
        "meta_ephemeris_type": 0,
        "meta_classification_type": "U",
        "meta_norad_cat_id": 42965,
        "meta_element_set_no": 999,
        "meta_rev_at_epoch": 2992,
        "meta_bstar": 0,
        "meta_mean_motion_dot": -3.6e-06,
        "meta_mean_motion_ddot": 0,
        "tle_line1": "1 42965U 17062A   25345.90408344 -.00000360  00000+0  00000+0 0  9991",
        "tle_line2": "2 42965  40.2262 345.8805 0751972 271.5381 285.3819  1.00253099 29922"
      },
      "geometry": {
        "type": "Point",
        "coordinates": [
          161.6540415099091,
          3.5491875354457805
        ]
      }
    },
    {
      "type": "Feature",
      "properties": {
        "norad_id": 43001,
        "name": "BEIDOU-3 M1 (C19)",
        "group": "gnss",
        "lat": 29.382465263101782,
        "lon": 91.07743897785046,
        "alt_km": 21525.45419678727,
        "timestamp": "2025-12-12T20:43:07.278485+00:00",
        "meta_object_name": "BEIDOU-3 M1 (C19)",
        "meta_object_id": "2017-069A",
        "meta_epoch": "2025-12-10T02:59:44.237184",
        "meta_mean_motion": 1.86231011,
        "meta_eccentricity": 0.0009053,
        "meta_inclination": 56.5252,
        "meta_ra_of_asc_node": 69.32,
        "meta_arg_of_pericenter": 303.7778,
        "meta_mean_anomaly": 56.1585,
        "meta_ephemeris_type": 0,
        "meta_classification_type": "U",
        "meta_norad_cat_id": 43001,
        "meta_element_set_no": 999,
        "meta_rev_at_epoch": 5508,
        "meta_bstar": 0,
        "meta_mean_motion_dot": -5.2e-07,
        "meta_mean_motion_ddot": 0,
        "tle_line1": "1 43001U 17069A   25344.12481756 -.00000052  00000+0  00000+0 0  9999",
        "tle_line2": "2 43001  56.5252  69.3200 0009053 303.7778  56.1585  1.86231011 55088"
      },
      "geometry": {
        "type": "Point",
        "coordinates": [
          91.07743897785046,
          29.382465263101782
        ]
      }
    },
    {
      "type": "Feature",
      "properties": {
        "norad_id": 43002,
        "name": "BEIDOU-3 M2 (C20)",
        "group": "gnss",
        "lat": 54.50257898777961,
        "lon": 137.15728529098516,
        "alt_km": 21526.205965551944,
        "timestamp": "2025-12-12T20:43:07.278497+00:00",
        "meta_object_name": "BEIDOU-3 M2 (C20)",
        "meta_object_id": "2017-069B",
        "meta_epoch": "2025-12-09T12:37:45.819264",
        "meta_mean_motion": 1.8623055,
        "meta_eccentricity": 0.0006254,
        "meta_inclination": 56.5238,
        "meta_ra_of_asc_node": 69.3764,
        "meta_arg_of_pericenter": 332.6094,
        "meta_mean_anomaly": 27.38,
        "meta_ephemeris_type": 0,
        "meta_classification_type": "U",
        "meta_norad_cat_id": 43002,
        "meta_element_set_no": 999,
        "meta_rev_at_epoch": 5506,
        "meta_bstar": 0,
        "meta_mean_motion_dot": -4.8e-07,
        "meta_mean_motion_ddot": 0,
        "tle_line1": "1 43002U 17069B   25343.52622476 -.00000048  00000+0  00000+0 0  9994",
        "tle_line2": "2 43002  56.5238  69.3764 0006254 332.6094  27.3800  1.86230550 55065"
      },
      "geometry": {
        "type": "Point",
        "coordinates": [
          137.15728529098516,
          54.50257898777961
        ]
      }
    },
    {
      "type": "Feature",
      "properties": {
        "norad_id": 43055,
        "name": "GSAT0215 (GALILEO 19)",
        "group": "gnss",
        "lat": -41.330250801208486,
        "lon": 84.42267801213832,
        "alt_km": 23228.78576237872,
        "timestamp": "2025-12-12T20:43:07.278508+00:00",
        "meta_object_name": "GSAT0215 (GALILEO 19)",
        "meta_object_id": "2017-079A",
        "meta_epoch": "2025-12-11T21:30:24.060384",
        "meta_mean_motion": 1.704739,
        "meta_eccentricity": 0.00012658,
        "meta_inclination": 55.1303,
        "meta_ra_of_asc_node": 226.661,
        "meta_arg_of_pericenter": 350.6161,
        "meta_mean_anomaly": 9.46,
        "meta_ephemeris_type": 0,
        "meta_classification_type": "U",
        "meta_norad_cat_id": 43055,
        "meta_element_set_no": 999,
        "meta_rev_at_epoch": 4979,
        "meta_bstar": 0,
        "meta_mean_motion_dot": 1.3e-07,
        "meta_mean_motion_ddot": 0,
        "tle_line1": "1 43055U 17079A   25345.89611181  .00000013  00000+0  00000+0 0  9997",
        "tle_line2": "2 43055  55.1303 226.6610 0001265 350.6161   9.4600  1.70473900 49794"
      },
      "geometry": {
        "type": "Point",
        "coordinates": [
          84.42267801213832,
          -41.330250801208486
        ]
      }
    },
    {
      "type": "Feature",
      "properties": {
        "norad_id": 43056,
        "name": "GSAT0216 (GALILEO 20)",
        "group": "gnss",
        "lat": 42.123223193409295,
        "lon": -94.31210815768534,
        "alt_km": 23217.70314557461,
        "timestamp": "2025-12-12T20:43:07.278518+00:00",
        "meta_object_name": "GSAT0216 (GALILEO 20)",
        "meta_object_id": "2017-079B",
        "meta_epoch": "2025-12-10T10:15:48.535776",
        "meta_mean_motion": 1.70473969,
        "meta_eccentricity": 0.000248,
        "meta_inclination": 55.1311,
        "meta_ra_of_asc_node": 226.7014,
        "meta_arg_of_pericenter": 319.9818,
        "meta_mean_anomaly": 40.0811,
        "meta_ephemeris_type": 0,
        "meta_classification_type": "U",
        "meta_norad_cat_id": 43056,
        "meta_element_set_no": 999,
        "meta_rev_at_epoch": 4978,
        "meta_bstar": 0,
        "meta_mean_motion_dot": 9e-08,
        "meta_mean_motion_ddot": 0,
        "tle_line1": "1 43056U 17079B   25344.42764509  .00000009  00000+0  00000+0 0  9994",
        "tle_line2": "2 43056  55.1311 226.7014 0002480 319.9818  40.0811  1.70473969 49789"
      },
      "geometry": {
        "type": "Point",
        "coordinates": [
          -94.31210815768534,
          42.123223193409295
        ]
      }
    }
  ]
}